SENTINEL-2A             
1 40697U 15028A   20183.10966993 -.00000009  00000-0  13020-4 0  9999
2 40697  98.5688 257.1557 0001179  90.5270 269.6054 14.30819351262417
AVUM R/B                
1 40698U 15028B   20182.86428137 -.00000163  00000-0 -19363-5 0  9994
2 40698  98.6413 118.9457 0255542 334.3351  24.5363 14.97790848274283
